NORAD_CAT_ID,OBJECT_NAME,OBJECT_TYPE,EPOCH,MEAN_MOTION,ECCENTRICITY,INCLINATION,RA_OF_ASC_NODE,ARG_OF_PERICENTER,MEAN_ANOMALY,BSTAR,MEAN_MOTION_DOT,MEAN_MOTION_DDOT,TLE_LINE0,TLE_LINE1,TLE_LINE2,SEMIMAJOR_AXIS,PERIOD,APOGEE,PERIGEE,DECAYED
53868.0,STARLINK-4789,PAYLOAD,2023-01-31 00:00:00,15.52251338,0.000117,53.2138,316.6459,84.4814,88.1516,-0.016384,-0.00930341,0.0,0 STARLINK-4789,1 53868U 22114BC  23031.00001157 -.00930341  00000-0 -16384-1 0  9998,2 53868  53.2138 316.6459 0001170  84.4814  88.1516 15.52251338  1304,6788.291,92.768,410.951,409.362,0.0
53868.0,STARLINK-4789,PAYLOAD,2023-01-31 02:00:01,15.52070157,0.0001139,53.2138,316.2468,85.6,192.9494,-0.01581,-0.00882929,0.0,0 STARLINK-4789,1 53868U 22114BC  23031.08334491 -.00882929  00000-0 -15810-1 0  9997,2 53868  53.2138 316.2468 0001139  85.6000 192.9494 15.52070157 21663,6788.82,92.779,411.458,409.911,0.0
53868.0,STARLINK-4789,PAYLOAD,2023-01-31 14:00:01,15.51083429,0.0001153,53.2135,313.8494,93.7563,99.2495,-0.015951,-0.00861672,0.0,0 STARLINK-4789,1 53868U 22114BC  23031.58334491 -.00861672  00000-0 -15951-1 0  9990,2 53868  53.2135 313.8494 0001153  93.7563  99.2495 15.51083429  1306,6791.699,92.838,414.347,412.78,0.0
53868.0,STARLINK-4789,PAYLOAD,2023-01-31 22:00:00,15.50478679,0.0001197,53.2137,312.2549,98.0627,156.9183,-0.017949,-0.00954114,0.0,0 STARLINK-4789,1 53868U 22114BC  23031.91667824 -.00954114  00000-0 -17949-1 0  9999,2 53868  53.2137 312.2549 0001197  98.0627 156.9183 15.50478679 21793,6793.464,92.875,416.143,414.516,0.0
53868.0,STARLINK-4789,PAYLOAD,2023-02-01 14:00:01,15.49121138,0.0001024,53.2138,309.0683,96.905,279.7267,-0.016805,-0.00847708,0.0,0 STARLINK-4789,1 53868U 22114BC  23032.58334491 -.00847708  00000-0 -16805-1 0  9994,2 53868  53.2138 309.0683 0001024  96.9050 279.7267 15.49121138 21894,6797.433,92.956,419.994,418.602,0.0
53868.0,STARLINK-4789,PAYLOAD,2023-02-02 06:00:00,15.4786144,0.0001269,53.214,305.8907,80.0925,55.0238,-0.018831,-0.0091569,0.0,0 STARLINK-4789,1 53868U 22114BC  23033.25001157 -.00915690  00000-0 -18831-1 0  9996,2 53868  53.2140 305.8907 0001269  80.0925  55.0238 15.47861440 22008,6801.12,93.032,423.848,422.122,0.0
53868.0,STARLINK-4789,PAYLOAD,2023-02-02 14:00:01,15.47166269,0.0001296,53.2142,304.3014,94.1167,99.0968,-0.017857,-0.00841566,0.0,0 STARLINK-4789,1 53868U 22114BC  23033.58334491 -.00841566  00000-0 -17857-1 0  9999,2 53868  53.2142 304.3014 0001296  94.1167  99.0968 15.47166269  1302,6803.157,93.073,425.904,424.141,0.0
53868.0,STARLINK-4789,PAYLOAD,2023-02-03 02:00:01,15.46206049,0.0001341,53.2144,301.9251,81.8134,17.0432,-0.019055,-0.00877755,0.0,0 STARLINK-4789,1 53868U 22114BC  23034.08334491 -.00877755  00000-0 -19055-1 0  9996,2 53868  53.2144 301.9251 0001341  81.8134  17.0432 15.46206049 22138,6805.974,93.131,428.751,426.926,0.0
53868.0,STARLINK-4789,PAYLOAD,2023-02-03 14:00:01,15.45216575,0.0001163,53.2138,299.5485,95.1936,267.5599,-0.019173,-0.00844241,0.0,0 STARLINK-4789,1 53868U 22114BC  23034.58334491 -.00844241  00000-0 -19173-1 0  9996,2 53868  53.2138 299.5485 0001163  95.1936 267.5599 15.45216575  1308,6808.879,93.191,431.536,429.952,0.0
53868.0,STARLINK-4789,PAYLOAD,2023-02-03 16:00:00,15.45085195,0.0001312,53.2139,299.153,92.672,13.8786,-0.020355,-0.00900157,0.0,0 STARLINK-4789,1 53868U 22114BC  23034.66667824 -.00900157  00000-0 -20355-1 0  9997,2 53868  53.2139 299.1530 0001312  92.6720  13.8786 15.45085195 22221,6809.265,93.199,432.023,430.236,0.0
53868.0,STARLINK-4789,PAYLOAD,2023-02-04 00:00:00,15.4442704,0.0001411,53.2135,297.574,85.1107,76.2003,-0.020915,-0.00903971,0.0,0 STARLINK-4789,1 53868U 22114BC  23035.00001157 -.00903971  00000-0 -20915-1 0  9996,2 53868  53.2135 297.5740 0001411  85.1107  76.2003 15.44427040  1307,6811.199,93.238,434.025,432.103,0.0
53868.0,STARLINK-4789,PAYLOAD,2023-02-04 10:00:00,15.43629801,0.0001286,53.2131,295.5993,95.3836,223.2659,-0.022271,-0.00934053,0.0,0 STARLINK-4789,1 53868U 22114BC  23035.41667824 -.00934053  00000-0 -22271-1 0  9992,2 53868  53.2131 295.5993 0001286  95.3836 223.2659 15.43629801 22338,6813.544,93.287,436.285,434.533,0.0
53868.0,STARLINK-4789,PAYLOAD,2023-02-04 14:00:01,15.43274972,0.0001363,53.2129,294.8098,96.6128,68.6374,-0.020934,-0.00872531,0.0,0 STARLINK-4789,1 53868U 22114BC  23035.58334491 -.00872531  00000-0 -20934-1 0  9997,2 53868  53.2129 294.8098 0001363  96.6128  68.6374 15.43274972  1301,6814.588,93.308,437.382,435.525,0.0
53868.0,STARLINK-4789,PAYLOAD,2023-02-04 22:00:00,15.42643979,0.000138,53.2129,293.2347,93.898,123.9519,-0.022596,-0.00917937,0.0,0 STARLINK-4789,1 53868U 22114BC  23035.91667824 -.00917937  00000-0 -22596-1 0  9999,2 53868  53.2129 293.2347 0001380  93.8980 123.9519 15.42643979  1307,6816.447,93.346,439.252,437.371,0.0
53868.0,STARLINK-4789,PAYLOAD,2023-02-05 14:00:01,15.41320912,0.0001223,53.2125,290.0848,100.6209,220.1556,-0.02234,-0.00871802,0.0,0 STARLINK-4789,1 53868U 22114BC  23036.58335648 -.00871802  00000-0 -22340-1 0  9996,2 53868  53.2125 290.0848 0001223 100.6209 220.1556 15.41320912  1300,6820.347,93.426,443.046,441.378,0.0
53868.0,STARLINK-4789,PAYLOAD,2023-02-05 16:00:00,15.41184579,0.0001237,53.2127,289.6916,92.5631,330.7754,-0.02351,-0.00909977,0.0,0 STARLINK-4789,1 53868U 22114BC  23036.66667824 -.00909977  00000-0 -23510-1 0  9994,2 53868  53.2127 289.6916 0001237  92.5631 330.7754 15.41184579 22538,6820.749,93.435,443.458,441.77,0.0
53868.0,STARLINK-4789,PAYLOAD,2023-02-05 22:00:00,15.40693565,0.0001244,53.2126,288.5143,82.0512,288.9109,-0.0242,-0.00920519,0.0,0 STARLINK-4789,1 53868U 22114BC  23036.91667824 -.00920519  00000-0 -24200-1 0  9994,2 53868  53.2126 288.5143 0001244  82.0512 288.9109 15.40693565  1306,6822.198,93.464,444.912,443.214,0.0
53868.0,STARLINK-4789,PAYLOAD,2023-02-06 14:00:01,15.39377424,0.0001353,53.2127,285.3735,89.999,19.1283,-0.024197,-0.00884132,0.0,0 STARLINK-4789,1 53868U 22114BC  23037.58334491 -.00884132  00000-0 -24197-1 0  9994,2 53868  53.2127 285.3735 0001353  89.9990  19.1283 15.39377424 22677,6826.086,93.544,448.875,447.028,0.0
53868.0,STARLINK-4789,PAYLOAD,2023-02-06 22:00:00,15.38738422,0.0001473,53.2126,283.8077,85.9789,71.0572,-0.025734,-0.00917748,0.0,0 STARLINK-4789,1 53868U 22114BC  23037.91667824 -.00917748  00000-0 -25734-1 0  9998,2 53868  53.2126 283.8077 0001473  85.9789  71.0572 15.38738422  1306,6827.976,93.583,450.847,448.835,0.0
53868.0,STARLINK-4789,PAYLOAD,2023-02-07 08:00:01,15.37949475,0.0001284,53.2127,281.8502,89.9251,215.8896,-0.027649,-0.00957151,0.0,0 STARLINK-4789,1 53868U 22114BC  23038.33334491 -.00957151  00000-0 -27649-1 0  9995,2 53868  53.2127 281.8502 0001284  89.9251 215.8896 15.37949475 22789,6830.311,93.631,453.053,451.299,0.0
53868.0,STARLINK-4789,PAYLOAD,2023-02-07 14:00:01,15.37425106,0.000134,53.2128,280.6759,97.4346,153.0742,-0.025907,-0.00887534,0.0,0 STARLINK-4789,1 53868U 22114BC  23038.58334491 -.00887534  00000-0 -25907-1 0  9994,2 53868  53.2128 280.6759 0001340  97.4346 153.0742 15.37425106  1301,6831.864,93.663,454.644,452.813,0.0
53868.0,STARLINK-4789,PAYLOAD,2023-02-07 22:00:00,15.3678005,0.0001383,53.2128,279.1149,88.3791,207.6914,-0.027149,-0.00908892,0.0,0 STARLINK-4789,1 53868U 22114BC  23038.91667824 -.00908892  00000-0 -27149-1 0  9991,2 53868  53.2128 279.1149 0001383  88.3791 207.6914 15.36780050  1305,6833.775,93.702,456.585,454.695,0.0
53868.0,STARLINK-4789,PAYLOAD,2023-02-08 00:00:00,15.36609955,0.0001331,53.213,278.7247,80.5776,316.7608,-0.026691,-0.00890224,0.0,0 STARLINK-4789,1 53868U 22114BC  23039.00001157 -.00890224  00000-0 -26691-1 0  9993,2 53868  53.2130 278.7247 0001331  80.5776 316.7608 15.36609955 22895,6834.28,93.713,457.054,455.235,0.0
53868.0,STARLINK-4789,PAYLOAD,2023-02-08 14:00:01,15.35477986,0.0001162,53.2127,275.9922,89.6531,295.1915,-0.027848,-0.00894987,0.0,0 STARLINK-4789,1 53868U 22114BC  23039.58334491 -.00894987  00000-0 -27848-1 0  9991,2 53868  53.2127 275.9922 0001162  89.6531 295.1915 15.35477986  1301,6837.638,93.782,460.298,458.709,0.0
53868.0,STARLINK-4789,PAYLOAD,2023-02-08 16:00:00,15.35337758,0.0001388,53.213,275.6028,87.8191,37.8943,-0.029118,-0.00928609,0.0,0 STARLINK-4789,1 53868U 22114BC  23039.66667824 -.00928609  00000-0 -29118-1 0  9990,2 53868  53.2130 275.6028 0001388  87.8191  37.8943 15.35337758 22993,6838.054,93.79,460.869,458.97,0.0
53868.0,STARLINK-4789,PAYLOAD,2023-02-08 22:00:00,15.34829001,0.0001325,53.2127,274.4359,78.3936,349.6672,-0.028928,-0.00909274,0.0,0 STARLINK-4789,1 53868U 22114BC  23039.91667824 -.00909274  00000-0 -28928-1 0  9993,2 53868  53.2127 274.4359 0001325  78.3936 349.6672 15.34829001  1307,6839.565,93.822,462.337,460.524,0.0
53868.0,STARLINK-4789,PAYLOAD,2023-02-09 12:00:00,15.33672461,0.0001199,53.2124,271.7111,86.4482,325.3633,-0.02877,-0.00874411,0.0,0 STARLINK-4789,1 53868U 22114BC  23040.50001157 -.00874411  00000-0 -28770-1 0  9990,2 53868  53.2124 271.7111 0001199  86.4482 325.3633 15.33672461  1308,6843.003,93.892,465.689,464.048,0.0
53868.0,STARLINK-4789,PAYLOAD,2023-02-09 22:00:00,15.32874538,0.0001421,53.2122,269.7707,81.0655,111.9471,-0.030617,-0.00904645,0.0,0 STARLINK-4789,1 53868U 22114BC  23040.91667824 -.00904645  00000-0 -30617-1 0  9990,2 53868  53.2122 269.7707 0001421  81.0655 111.9471 15.32874538 23182,6845.378,93.941,468.216,466.27,0.0
53868.0,STARLINK-4789,PAYLOAD,2023-02-10 00:00:00,15.32701939,0.0001352,53.2123,269.3829,82.1195,210.9892,-0.029943,-0.00881845,0.0,0 STARLINK-4789,1 53868U 22114BC  23041.00001157 -.00881845  00000-0 -29943-1 0  9998,2 53868  53.2123 269.3829 0001352  82.1195 210.9892 15.32701939  1309,6845.892,93.952,468.682,466.831,0.0
53868.0,STARLINK-4789,PAYLOAD,2023-02-10 04:00:00,15.32407885,0.0001405,53.2118,268.6065,74.3978,58.7434,-0.032113,-0.00932413,0.0,0 STARLINK-4789,1 53868U 22114BC  23041.16667824 -.00932413  00000-0 -32113-1 0  9995,2 53868  53.2118 268.6065 0001405  74.3978  58.7434 15.32407885  1301,6846.768,93.97,469.595,467.671,0.0
